#cP2023  1 11  0  0  0.00000000      96 ORBIT IGS20 HLM  IGS
## 2244 259200.00000000   900.00000000 59955 0.0000000000000
+   31   G01G02G03G04G05G06G07G08G09G10G11G12G13G14G15G16G17
+        G18G19G20G21G22G23G24G25G26G27G29G30G31G32  0  0  0
+          0  0  0  0  0  0  0  0  0  0  0  0  0  0  0  0  0
+          0  0  0  0  0  0  0  0  0  0  0  0  0  0  0  0  0
+          0  0  0  0  0  0  0  0  0  0  0  0  0  0  0  0  0
++         2  2  2  2  2  2  2  2  2  2  2  2  2  2  2  2  2
++         2  2  2  2  0  2  2  2  2  2  2  2  2  2  0  0  0
++         0  0  0  0  0  0  0  0  0  0  0  0  0  0  0  0  0
++         0  0  0  0  0  0  0  0  0  0  0  0  0  0  0  0  0
++         0  0  0  0  0  0  0  0  0  0  0  0  0  0  0  0  0
%c G  cc GPS ccc cccc cccc cccc cccc ccccc ccccc ccccc ccccc
%c cc cc ccc ccc cccc cccc cccc cccc ccccc ccccc ccccc ccccc
%f  1.2500000  1.025000000  0.00000000000  0.000000000000000
%f  0.0000000  0.000000000  0.00000000000  0.000000000000000
%i    0    0    0    0      0      0      0      0         0
%i    0    0    0    0      0      0      0      0         0
/* RAPID ORBIT COMBINATION FROM WEIGHTED AVERAGE OF:        
/* cod emr esa gfz grg jpl ngs sio usn whu                  
/* REFERENCED TO IGS TIME (IGST) AND TO WEIGHTED MEAN POLE: 
/* PCV:IGS20_2233 OL/AL:FES2014b NONE     Y  ORB:CMB CLK:CMB
*  2023  1 11 19 30  0.00000000
PG01   2989.664745 -16260.178591 -21013.341269    225.676091  7  7  4 115       
PG02   1033.907784  16360.159174  21572.657635   -627.896409  7  6  6 103       
PG03  -6735.006163 -19292.380304 -17150.240208   -372.721605  4 10  7 117       
PG04    -18.934821 -25960.767037   5337.539165    -50.700413  8  8  5  61       
PG05  -8120.307554  12685.302239  21704.564497   -111.608072  6  8  7 109       
PG06 -24794.956426   4718.987014  -8339.712071    556.852385  5  8  6  70       
PG07 -12815.211934 -10863.338266  21094.555786    260.397647  6  6  6 103       
PG08   6592.972488 -24676.600864   6455.531922   -103.089921  3  7  3  89       
PG09  -8664.190374 -20260.662650  14717.394354   -238.160729  8  7  8  80       
PG10  23268.816817  10297.783721  -7989.586476    -20.007822  5  5  4  84       
PG11 -23170.579509  12142.484912   4501.768255    -76.504620  2  7  4  65       
PG12   3978.689833  19535.681871 -17876.543222   -326.915476  6  6  5 110       
PG13 -13076.210421  19861.393817  11454.540761    457.696156  7  6  5  99       
PG14 -22761.014801 -12439.892558  -6000.554058    -51.326971  6  9  6  92       
PG15  -3447.594551  25484.873556   5578.737466      3.771413  6  6  5  96       
PG16  12545.850273  -8711.202889  21477.986120   -524.126772  5  6  2  96       
PG17 -13212.124636  -7827.107079 -21221.973830    692.664076  6  5  8 116       
PG18  15174.005108   8503.549166  20117.797963    -95.136543  4  5  5 112       
PG19 -15643.511202   4256.453507 -21213.845596    262.792102  5  7  6 110       
PG20 -18351.870029   5514.163653  18328.934247    457.690830  7  8  4  97       
PG21  11065.159234 -17975.200117 -15013.554022    153.372664  6  6  5  79       
PG22  15405.360447  -8649.092624 -19348.727186 999999.999999                    
PG23  20627.413072  16608.381602   2876.228918      2.197175  8  7  5  85       
PG24  -6087.230366  18602.598992 -18112.405484    -25.602316  7  6  6  95       
PG25  13741.266305  19928.271042 -11554.468231    410.418587  6  6  4 105       
PG26  21523.247749     41.645408  15669.801396    240.137108  2  6  4 106       
PG27  12506.797022 -17124.169867  15501.417883    129.522038  4  4  5  90       
PG29   4813.867641  22498.267970  13155.929049   -579.809758  9  9  8  88       
PG30 -22379.948136  -2033.132869  14445.334458   -533.504145  6  6  7 104       
PG31  25428.331817  -5370.369925  -6712.208468   -206.038480  3  6  5  99       
PG32  14749.056565   4230.436227 -21534.907254   -360.757659  5  7  5 108       
*  2023  1 11 19 45  0.00000000
PG01   5090.537084 -17141.431094 -19829.009034    225.671812  7  7  4 113       
PG02   -964.930660  17462.594340  20685.504766   -627.893900  7  6  6 100       
PG03  -4997.929823 -18239.246218 -18817.481340   -372.719684  4  9  6 122       
PG04    284.082745 -26380.385489   2519.262393    -50.693619  8  8  5  77       
PG05 -10248.585322  11353.854503  21552.373129   -111.609587  7  8  7 105       
PG06 -23858.782451   4107.353591 -10953.572251    556.857975  6  8  6  63       
PG07 -10704.593661 -11907.040593  21668.214114    260.392441  6  6  6  98       
PG08   6813.825577 -23756.225550   9140.803696   -103.092761  4  6  2  89       
PG09  -8363.994737 -21818.653100  12505.531814   -238.154841  8  7  8  90       
PG10  23804.659639  10879.035285  -5253.654596    -20.008941  4  5  4 102       
PG11 -23589.924863  12051.712508   1665.633024    -76.512419  2  7  4  73       
PG12   2279.906765  18336.060099 -19394.344981   -326.919618  6  6  5 103       
PG13 -12964.717907  18375.577657  13803.058237    457.702187  7  5  5 100       
PG14 -23026.922970 -12970.225851  -3238.754114    -51.320145  5  9  6  98       
PG15  -3845.457980  24654.364669   8237.175425      3.774286  5  6  6 100       
PG16  14440.541499  -7110.876046  20918.477787   -524.125407  5  6  3  95       
PG17 -12805.415914 -10266.745870 -20424.498895    692.666014  7  6  8 123       
PG18  13065.141856   9544.165975  21094.712589    -95.150232  4  6  5 107       
PG19 -15260.042430   1870.359190 -21858.380974    262.796828  4  7  6 108       
PG20 -20097.099017   4501.470160  16680.076378    457.688471  6  8  5 101       
PG21  12672.793024 -18621.992604 -12811.196890    153.372969  5  6  6  92       
PG22  15140.320231  -6295.108429 -20428.984755 999999.999999                    
PG23  20104.650550  16520.136745   5690.625150      2.198107  8  7  5  98       
PG24  -7864.812386  19406.438389 -16439.243334    -25.617383  7  6  6  88       
PG25  12466.783125  19312.836933 -13851.025511    410.421611  5  6  4  93       
PG26  22861.911915   1094.036851  13648.021039    240.137723  3  5  4  97       
PG27  12544.193533 -15182.381527  17390.892711    129.513488  5  3  4  90       
PG29   4430.755700  23828.491877  10726.229877   -579.811843  8  8  8  93       
PG30 -20885.853222  -2961.773966  16380.231016   -533.503276  7  6  7 105       
PG31  24710.278049  -4804.988558  -9329.565733   -206.039175  3  6  5  93       
PG32  14546.734911   6691.564149 -21064.508857   -360.768895  5  7  4 109       
*  2023  1 11 20  0  0.00000000
PG01   7008.008097 -18069.831717 -18308.832953    225.667576  7  7  5 114       
PG02  -2804.450871  18608.787977  19462.768035   -627.892098  7  6  5  90       
PG03  -3059.606107 -17196.055494 -20165.194665   -372.717817  4  9  4 129       
PG04    548.402564 -26493.177450   -342.661575    -50.686827  8  8  5  76       
PG05 -12408.084480  10154.517250  21023.769871   -111.610584  7  8  6  94       
PG06 -22707.591385   3305.530725 -13379.166141    556.863532  6  8  6  86       
PG07  -8609.158524 -13081.838990  21884.617855    260.386819  6  6  6  90       
PG08   7083.457329 -22551.083908  11664.980638   -103.093430  3  5  2  85       
PG09  -8143.064677 -23126.361720  10077.045737   -238.148928  7  6  8  84       
PG10  24102.600557  11267.648151  -2428.635988    -20.010231  4  5  5  89       
PG11 -23723.233621  11841.012024  -1199.226009    -76.520218  3  7  4  20       
PG12    395.367473  17142.865100 -20586.803277   -326.923490  6  7  5  94       
PG13 -12893.309177  16633.913914  15909.329216    457.707731  7  5  5  77       
PG14 -23055.537938 -13315.144773   -421.621096    -51.313423  5  9  6  90       
PG15  -4318.680461  23548.484481  10749.191144      3.777211  5  5  6  91       
PG16  16344.055376  -5665.918203  19992.220064   -524.124551  3  5  4  85       
PG17 -12538.420603 -12610.632067 -19261.009346    692.668513  7  7  8 124       
PG18  10935.062437  10740.473879  21709.674490    -95.163843  6  6  6 100       
PG19 -15002.081170   -581.506239 -22133.653695    262.801286  4  6  6 118       
PG20 -21702.746299   3650.320836  14742.310241    457.686529  6  9  5  92       
PG21  14019.534505 -19197.625320 -10371.474129    153.373173  4  6  6  87       
PG22  14985.441276  -3827.577986 -21142.875151 999999.999999                    
PG23  19305.116131  16307.615007   8407.911394      2.199079  9  8  5  90       
PG24  -9437.812307  20181.910290 -14485.155816    -25.632511  7  6  6  91       
PG25  10953.094518  18641.154941 -15916.513640    410.424596  5  6  4 100       
PG26  24035.460751   1967.377302  11393.659909    240.138338  4  4  5 104       
PG27  12680.259229 -13047.085614  18971.233213    129.504965  5  3  2  92       
PG29   4147.185690  24891.850754   8110.760685   -579.813806  7  7  7  84       
PG30 -19260.750226  -4057.961744  18037.870134   -533.502464  7  6  7 104       
PG31  23771.552794  -4071.205045 -11791.421072   -206.040415  3  6  5 107       
PG32  14472.444873   9083.077379 -20227.505419   -360.780113  5  7  4 108       
EOF
